TDRS 3                  
1 19548U 88091B   26193.26810549 -.00000301  00000+0  00000+0 0  9992
2 19548  12.5830 340.8325 0037006 355.4856   1.2392  1.00263537125636
FLTSATCOM 8 (USA 46)    
1 20253U 89077A   26193.45710745 -.00000371  00000+0  00000+0 0  9997
2 20253  12.4143 351.0089 0003495  69.4376 160.0118  1.00264418260811
SKYNET 4C               
1 20776U 90079A   26192.60704403 -.00000057  00000+0  00000+0 0  9992
2 20776  13.3305 349.6572 0002869 137.0180 234.3093  0.98577098   287
TDRS 5                  
1 21639U 91054B   26193.26240552  .00000080  00000+0  00000+0 0  9993
2 21639  14.0679 353.5896 0007432 257.5972 325.7325  1.00272238127969
TDRS 6                  
1 22314U 93003B   26193.33544411 -.00000300  00000+0  00000+0 0  9995
2 22314  14.1831 356.8693 0008185 183.6383 184.3826  1.00280801122665
UFO 2 (USA 95)          
1 22787U 93056A   26193.14092454  .00000121  00000+0  00000+0 0  9991
2 22787  11.9058   3.4153 0002695   8.6299 357.3694  1.00268970118802
USA 99 (MILSTAR-1 1)    
1 22988U 94009A   26192.64057240 -.00000002  00000+0  00000+0 0  9990
2 22988  17.6619  27.4499 0001626 196.6248 164.5715  0.98720423 33197
UFO 4 (USA 108)         
1 23467U 95003A   26193.52055854 -.00000026  00000+0  00000+0 0  9991
2 23467   9.6741  13.0206 0003146  96.4803 180.6457  1.00275863115209
TDRS 7                  
1 23613U 95035B   26193.43807090 -.00000244  00000+0  00000+0 0  9998
2 23613  13.3666 348.0137 0011579  85.6716 103.5899  1.00274612113502
USA 115 (MILSTAR-1 2)   
1 23712U 95060A   26193.47384000 -.00000208  00000+0  00000+0 0  9991
2 23712  14.0817   3.5543 0006082 123.9580 243.4147  1.00272901 33140
INMARSAT 3-F1           
1 23839U 96020A   26193.23933588  .00000033  00000+0  00000+0 0  9998
2 23839  10.6515  46.4004 0004382  85.1476 123.0907  0.99979676110502
INMARSAT 3-F2           
1 24307U 96053A   26193.51631609 -.00000366  00000+0  00000+0 0  9995
2 24307   9.9122  53.6751 0006414  52.1606 134.8919  0.99992974109174
INMARSAT 3-F3           
1 24674U 96070A   26193.28110556  .00000049  00000+0  00000+0 0  9995
2 24674  10.3708  49.4092 0003524  72.6184 286.2297  0.99994172108155
USA 134                 
1 25019U 97065A   26193.40723738 -.00000070  00000+0  00000+0 0  9995
2 25019  12.8132  21.5286 0002461 333.3964 329.5500  1.00273068 33203
INMARSAT 3-F5           
1 25153U 98006B   26193.48094670 -.00000298  00000+0  00000+0 0  9996
2 25153   9.7477  53.0034 0004304  60.8547 295.6731  1.00274003104148
ABS-6                   
1 25924U 99053A   26193.62058623 -.00000120  00000+0  00000+0 0  9993
2 25924   0.0471 270.7296 0003092 179.9027 222.2664  1.00269234 98095
UFO 10 (USA 146)        
1 25967U 99063A   26193.32544795 -.00000193  00000+0  00000+0 0  9998
2 25967   9.8585  27.0756 0001479 110.2518 247.0991  1.00273081 97596
ASIASTAR                
1 26107U 00016A   26193.51250274 -.00000341  00000+0  00000+0 0  9997
2 26107   9.1862  57.8788 0003700  65.4783  96.5601  1.00272392 96176
USA 149 (DSP 20)        
1 26356U 00024A   26193.17394469  .00000091  00000+0  00000+0 0  9990
2 26356  13.1887  11.6694 0001699 307.5341 228.7679  1.00280855 33160
TDRS 8                  
1 26388U 00034A   26193.05600166 -.00000203  00000+0  00000+0 0  9993
2 26388  12.7217  31.1075 0004179  34.3591 329.4932  1.00272956 95437
NSS-11                  
1 26554U 00059A   26193.59141994  .00000023  00000+0  00000+0 0  9992
2 26554   2.1896  81.0874 0002801  35.3316 202.9734  1.00270404 41549
USA 153                 
1 26575U 00065A   26193.52217044 -.00000333  00000+0  00000+0 0  9990
2 26575  11.6667  35.2057 0002065  59.3400 158.3019  1.00273331 33182
AMC-6                   
1 26580U 00067A   26193.48864409  .00000089  00000+0  00000+0 0  9993
2 26580   0.2142  83.6101 0003813  42.0689 205.5675  1.00271609 94149
USA 157 (MILSTAR-2 2)   
1 26715U 01009A   26193.25044869  .00000104  00000+0  00000+0 0  9993
2 26715  11.5695  19.6027 0040549 179.2508  31.3536  1.00272878 33191
INTELSAT 902 (IS-902)   
1 26900U 01039A   26193.44544819 -.00000288  00000+0  00000+0 0  9997
2 26900   6.1786  71.4730 0004424  37.0011 292.1157  1.00270766 90943
USA 164 (MILSTAR-2 3)   
1 27168U 02001A   26193.21027544  .00000093  00000+0  00000+0 0  9993
2 27168  11.2085  21.7489 0098486   8.9417 354.1118  1.00276003 33219
INTELSAT 904 (IS-904)   
1 27380U 02007A   26193.41415079 -.00000231  00000+0  00000+0 0  9996
2 27380   6.9804  68.8780 0005373  23.7610 315.2945  1.00271287 52018
DIRECTV 5 (TEMPO 1)     
1 27426U 02023A   26193.46086485 -.00000061  00000+0  00000+0 0  9996
2 27426   4.9397  74.9934 0003015  42.7165 228.4420  1.00271053 88372
INTELSAT 905 (IS-905)   
1 27438U 02027A   26193.48864409  .00000088  00000+0  00000+0 0  9993
2 27438   6.8144  69.4911 0003455  44.2995 215.2932  1.00271041 51612
GALAXY 3C (G-3C)        
1 27445U 02030A   26193.44975270 -.00000155  00000+0  00000+0 0  9996
2 27445   3.7962  77.6463 0001490  37.5120 242.2648  1.00270692 46742
INTELSAT 906 (IS-906)   
1 27513U 02041A   26193.52448762  .00000008  00000+0  00000+0 0  9990
2 27513   5.8647  72.6091 0003903  21.4805  89.2784  1.00272600 87281
